*******************************************************************************
JPL/HORIZONS                  4 Vesta (A807 FA)            2020-Jun-18 11:57:14
Rec #:       4 (+COV) Soln.date: 2020-Apr-06_17:19:16   # obs: 9397 (1950-2020)
 
IAU76/J2000 helio. ecliptic osc. elements (au, days, deg., period=Julian yrs):
 
  EPOCH=  2455197.5 ! 2010-Jan-01.00 (TDB)         Residual RMS= .47279
   EC= .0887310554696549   QR= 2.152357682350535   TP= 2455592.7214444377
   OM= 103.9148495024658   W=  149.8372802489448   IN= 7.134430829297838
   A= 2.36193463550964     MA= 252.6893654661686   ADIST= 2.571511588668745
   PER= 3.63003            N= .271520266           ANGMOM= .026332917
   DAN= 2.53805            DDN= 2.17637            L= 253.9452236
   B= 3.577816             MOID= 1.14232004        TP= 2011-Jan-31.2214444377
 
Asteroid physical parameters (km, seconds, rotational period in hours):
   GM= 17.8                RAD= 262.7              ROTPER= 5.342128
   H= 3.                   G= .320                 B-V= .782
                           ALBEDO= .4228           STYP= V
 
ASTEROID comments: 
1: soln ref.= JPL#35, OCC=0           radar(2977 delay, 0 Dop
2: source=ORB
*******************************************************************************
 
 
*******************************************************************************
Ephemeris / WWW_USER Thu Jun 18 11:57:14 2020 Pasadena, USA      / Horizons
*******************************************************************************
Target body name: 4 Vesta (A807 FA)               {source: JPL#35}
Center body name: Solar System Barycenter (0)     {source: DE431}
Center-site name: BODY CENTER
*******************************************************************************
Start time      : A.D. 2000-Jun-05 00:00:00.0000 TDB
Stop  time      : A.D. 2040-May-26 00:00:00.0000 TDB
Step-size       : 14400 minutes
*******************************************************************************
Center geodetic : 0.00000000,0.00000000,0.0000000 {E-lon(deg),Lat(deg),Alt(km)}
Center cylindric: 0.00000000,0.00000000,0.0000000 {E-lon(deg),Dxy(km),Dz(km)}
Center radii    : (undefined)                                                  
Small perturbers: Yes                             {source: SB431-N16}
Output units    : AU-D
Output type     : GEOMETRIC cartesian states
Output format   : 3 (position, velocity, LT, range, range-rate)
Reference frame : Ecliptic of J2000.0
*******************************************************************************
Initial IAU76/J2000 heliocentric ecliptic osculating elements (au, days, deg.):
  EPOCH=  2455197.5 ! 2010-Jan-01.00 (TDB)         Residual RMS= .47279        
   EC= .0887310554696549   QR= 2.152357682350535   TP= 2455592.7214444377      
   OM= 103.9148495024658   W=  149.8372802489448   IN= 7.134430829297838       
  Equivalent ICRF heliocentric equatorial cartesian coordinates (au, au/d):
   X=-1.777354639767897E+00  Y= 1.460932104845546E+00  Z= 8.141515647677620E-01
  VX=-6.629982541090495E-03 VY=-8.214349251492781E-03 VZ=-2.404773428447812E-03
Asteroid physical parameters (km, seconds, rotational period in hours):        
   GM= 17.8                RAD= 262.7              ROTPER= 5.342128            
   H= 3.                   G= .320                 B-V= .782                   
                           ALBEDO= .4228           STYP= V                     
*******************************************************************************
JDTDB
   X     Y     Z
   VX    VY    VZ
   LT    RG    RR
*******************************************************************************
$$SOE
2459470.500000000 = A.D. 2021-Sep-13 00:00:00.0000 TDB 
 X =-1.632701436334862E+00 Y =-1.433071436333797E+00 Z = 2.407952924251529E-01
 VX= 8.327236484386703E-03 VY=-8.718757558368831E-03 VZ=-7.531725803574221E-04
 LT= 1.262368994177574E-02 RG= 2.185724157962264E+00 RR=-5.868302084696905E-04
2459480.500000000 = A.D. 2021-Sep-23 00:00:00.0000 TDB 
 X =-1.547150846942874E+00 Y =-1.518167258529665E+00 Z = 2.329238524761994E-01
 VX= 8.779350105635721E-03 VY=-8.295848648144430E-03 VZ=-8.208219760571844E-04
 LT= 1.259110827382138E-02 RG= 2.180082817032391E+00 RR=-5.411180528811486E-04
2459490.500000000 = A.D. 2021-Oct-03 00:00:00.0000 TDB 
 X =-1.457188202964398E+00 Y =-1.598899158681680E+00 Z = 2.243851612518031E-01
 VX= 9.209335222420427E-03 VY=-7.846169986347540E-03 VZ=-8.865789626023746E-04
 LT= 1.256122085139999E-02 RG= 2.174907970255659E+00 RR=-4.935543164940597E-04
2459500.500000000 = A.D. 2021-Oct-13 00:00:00.0000 TDB 
 X =-1.363044040485631E+00 Y =-1.675005614322016E+00 Z = 2.151994531940628E-01
 VX= 9.615353621420698E-03 VY=-7.370983448635235E-03 VZ=-9.501821254740604E-04
 LT= 1.253413051755915E-02 RG= 2.170217424353766E+00 RR=-4.442828881187543E-04
2459510.500000000 = A.D. 2021-Oct-23 00:00:00.0000 TDB 
 X =-1.264966889877005E+00 Y =-1.746238520236699E+00 Z = 2.053895535928725E-01
 VX= 9.995647452368403E-03 VY=-6.871709790504355E-03 VZ=-1.011375073948684E-03
 LT= 1.250993145267085E-02 RG= 2.166027486152620E+00 RR=-3.934597388374675E-04
2459520.500000000 = A.D. 2021-Nov-02 00:00:00.0000 TDB 
 X =-1.163222388843643E+00 Y =-1.812364749108226E+00 Z = 1.949808173673458E-01
 VX= 1.034855583416544E-02 VY=-6.349922659404580E-03 VZ=-1.069908641182526E-03
 LT= 1.248870849877646E-02 RG= 2.162352845596313E+00 RR=-3.412521290871871E-04
2459530.500000000 = A.D. 2021-Nov-12 00:00:00.0000 TDB 
 X =-1.058092231657336E+00 Y =-1.873167641631360E+00 Z = 1.840010457921315E-01
 VX= 1.067253095964703E-02 VY=-5.807340485614972E-03 VZ=-1.125543088220297E-03
 LT= 1.247053653427940E-02 RG= 2.159206467478502E+00 RR=-2.878376540700326E-04
2459540.500000000 = A.D. 2021-Nov-22 00:00:00.0000 TDB 
 X =-9.498729612234798E-01 Y =-1.928448405226684E+00 Z = 1.724803813526205E-01
 VX= 1.096615336806710E-02 VY=-5.245816324426543E-03 VZ=-1.178050266492940E-03
 LT= 1.245547990917668E-02 RG= 2.156599493655776E+00 RR=-2.334030999739534E-04
2459550.500000000 = A.D. 2021-Dec-02 00:00:00.0000 TDB 
 X =-8.388746139091342E-01 Y =-1.978027401274187E+00 Z = 1.604511813584204E-01
 VX= 1.122814607174727E-02 VY=-4.667325734330872E-03 VZ=-1.227215697612113E-03
 LT= 1.244359195136621E-02 RG= 2.154541157567436E+00 RR=-1.781431349264737E-04
2459560.500000000 = A.D. 2021-Dec-12 00:00:00.0000 TDB 
 X =-7.254192299994500E-01 Y =-2.021745301828196E+00 Z = 1.479478713167936E-01
 VX= 1.145738726005405E-02 VY=-4.073952823143814E-03 VZ=-1.272840536019030E-03
 LT= 1.243491455209703E-02 RG= 2.153038712458406E+00 RR=-1.222588847287241E-04
2459570.500000000 = A.D. 2021-Dec-22 00:00:00.0000 TDB 
 X =-6.098392452729718E-01 Y =-2.059464098472631E+00 Z = 1.350067794090219E-01
 VX= 1.165292133178504E-02 VY=-3.467874671854605E-03 VZ=-1.314743379405240E-03
 LT= 1.242947783629397E-02 RG= 2.152097374297732E+00 RR=-6.595641842792470E-05
2459580.500000000 = A.D. 2022-Jan-01 00:00:00.0000 TDB 
 X =-4.924757816001878E-01 Y =-2.091067948440741E+00 Z = 1.216659537926208E-01
 VX= 1.181396801976053E-02 VY=-2.851344411844583E-03 VZ=-1.352761886297701E-03
 LT= 1.242729992315421E-02 RG= 2.151720280327151E+00 RR=-9.445135640489426E-06
2459590.500000000 = A.D. 2022-Jan-11 00:00:00.0000 TDB 
 X =-3.736768567128728E-01 Y =-2.116463845971661E+00 Z = 1.079649648433377E-01
 VX= 1.193992940349500E-02 VY=-2.226673243211250E-03 VZ=-1.386754165810143E-03
 LT= 1.242838678240853E-02 RG= 2.151908464173509E+00 RR= 4.706392679128759E-05
2459600.500000000 = A.D. 2022-Jan-21 00:00:00.0000 TDB 
 X =-2.537955350030839E-01 Y =-2.135582109803497E+00 Z = 9.394469474019017E-02
 VX= 1.203039467296492E-02 VY=-1.596211696460017E-03 VZ=-1.416599915915082E-03
 LT= 1.243273218960511E-02 RG= 2.152660848106381E+00 RR= 1.033598226222308E-04
2459610.500000000 = A.D. 2022-Jan-31 00:00:00.0000 TDB 
 X =-1.331880422767755E-01 Y =-2.148376680836730E+00 Z = 7.964711699974020E-02
 VX= 1.208514256618689E-02 VY=-9.623304589740255E-04 VZ=-1.442201293017385E-03
 LT= 1.244031778100105E-02 RG= 2.153974252542248E+00 RR= 1.592334090185164E-04
2459620.500000000 = A.D. 2022-Feb-10 00:00:00.0000 TDB 
 X =-1.221186784512089E-02 Y =-2.154825227291577E+00 Z = 6.511506870869614E-02
 VX= 1.210414146622078E-02 VY=-3.274011083895807E-04 VZ=-1.463483500788233E-03
 LT= 1.245111320598811E-02 RG= 2.155843422436194E+00 RR= 2.144790100788373E-04
2459630.500000000 = A.D. 2022-Feb-20 00:00:00.0000 TDB 
 X = 1.087761227505223E-01 Y =-2.154929058290784E+00 Z = 5.039201831817834E-02
 VX= 1.208754718456491E-02 VY= 3.062228759794526E-04 VZ=-1.480395087784487E-03
 LT= 1.246507637431930E-02 RG= 2.158261070087866E+00 RR= 2.688960358878463E-04
2459640.500000000 = A.D. 2022-Mar-02 00:00:00.0000 TDB 
 X = 2.294215415592115E-01 Y =-2.148712850327705E+00 Z = 3.552183192494440E-02
 VX= 1.203569850485647E-02 VY= 9.362244972330374E-04 VZ=-1.492907953408027E-03
 LT= 1.248215379497163E-02 RG= 2.161217933813738E+00 RR= 3.222905290723468E-04
2459650.500000000 = A.D. 2022-Mar-12 00:00:00.0000 TDB 
 X = 3.493742768217901E-01 Y =-2.136224194144604E+00 Z = 2.054854091530814E-02
 VX= 1.194911062164401E-02 VY= 1.560340727681700E-03 VZ=-1.501017071467826E-03
 LT= 1.250228100121236E-02 RG= 2.164702851545047E+00 RR= 3.744765972065793E-04
2459660.500000000 = A.D. 2022-Mar-22 00:00:00.0000 TDB 
 X = 4.682902161693897E-01 Y =-2.117532972337850E+00 Z = 5.516113721914229E-03
 VX= 1.182846665575439E-02 VY= 2.176378836553513E-03 VZ=-1.504739947286278E-03
 LT= 1.252538305417710E-02 RG= 2.168702848019649E+00 RR= 4.252776929058543E-04
2459670.500000000 = A.D. 2022-Apr-01 00:00:00.0000 TDB 
 X = 5.858328763250655E-01 Y =-2.092730580452198E+00 Z =-9.531765743864176E-03
 VX= 1.167460748293906E-02 VY= 2.782231326054879E-03 VZ=-1.504115828880117E-03
 LT= 1.255137511541780E-02 RG= 2.173203233915615E+00 RR= 4.745277235961327E-04
